[{"OBJECT_NAME":"ONEWEB-0720","OBJECT_ID":"2023-029AR","EPOCH":"2025-09-19T05:31:22.657440","MEAN_MOTION":13.19727282,"ECCENTRICITY":0.00015042,"INCLINATION":87.9285,"RA_OF_ASC_NODE":358.8742,"ARG_OF_PERICENTER":103.3017,"MEAN_ANOMALY":256.8283,"EPHEMERIS_TYPE":0,"CLASSIFICATION_TYPE":"U","NORAD_CAT_ID":55835,"ELEMENT_SET_NO":999,"REV_AT_EPOCH":12310,"BSTAR":0.00037811922,"MEAN_MOTION_DOT":1.64e-6,"MEAN_MOTION_DDOT":0},{"OBJECT_NAME":"ONEWEB-0537","OBJECT_ID":"2023-043A","EPOCH":"2025-09-19T00:53:55.667904","MEAN_MOTION":13.1659317,"ECCENTRICITY":0.00020671,"INCLINATION":87.8987,"RA_OF_ASC_NODE":282.803,"ARG_OF_PERICENTER":96.14,"MEAN_ANOMALY":263.9966,"EPHEMERIS_TYPE":0,"CLASSIFICATION_TYPE":"U","NORAD_CAT_ID":56046,"ELEMENT_SET_NO":999,"REV_AT_EPOCH":12328,"BSTAR":0.00031714855,"MEAN_MOTION_DOT":1.34e-6,"MEAN_MOTION_DDOT":0},{"OBJECT_NAME":"ONEWEB-0538","OBJECT_ID":"2023-043B","EPOCH":"2025-09-19T00:44:46.790304","MEAN_MOTION":13.16594252,"ECCENTRICITY":0.00018596,"INCLINATION":87.8977,"RA_OF_ASC_NODE":282.8156,"ARG_OF_PERICENTER":102.2574,"MEAN_ANOMALY":257.8765,"EPHEMERIS_TYPE":0,"CLASSIFICATION_TYPE":"U","NORAD_CAT_ID":56047,"ELEMENT_SET_NO":999,"REV_AT_EPOCH":12329,"BSTAR":0.00017184075,"MEAN_MOTION_DOT":7.9e-7,"MEAN_MOTION_DDOT":0},{"OBJECT_NAME":"ONEWEB-0546","OBJECT_ID":"2023-043C","EPOCH":"2025-09-19T00:26:34.195776","MEAN_MOTION":13.16594585,"ECCENTRICITY":0.00025813,"INCLINATION":87.899,"RA_OF_ASC_NODE":282.8003,"ARG_OF_PERICENTER":96.5875,"MEAN_ANOMALY":263.555,"EPHEMERIS_TYPE":0,"CLASSIFICATION_TYPE":"U","NORAD_CAT_ID":56048,"ELEMENT_SET_NO":999,"REV_AT_EPOCH":12328,"BSTAR":-3.1647471e-5,"MEAN_MOTION_DOT":1.0e-8,"MEAN_MOTION_DDOT":0},{"OBJECT_NAME":"ONEWEB-0547","OBJECT_ID":"2023-043D","EPOCH":"2025-09-19T00:42:07.130880","MEAN_MOTION":13.21825752,"ECCENTRICITY":0.00018104,"INCLINATION":87.9196,"RA_OF_ASC_NODE":298.0854,"ARG_OF_PERICENTER":97.2496,"MEAN_ANOMALY":262.8844,"EPHEMERIS_TYPE":0,"CLASSIFICATION_TYPE":"U","NORAD_CAT_ID":56049,"ELEMENT_SET_NO":999,"REV_AT_EPOCH":12240,"BSTAR":0.00014901156,"MEAN_MOTION_DOT":7.5e-7,"MEAN_MOTION_DDOT":0},{"OBJECT_NAME":"ONEWEB-0548","OBJECT_ID":"2023-043E","EPOCH":"2025-09-19T01:03:01.960416","MEAN_MOTION":13.16596424,"ECCENTRICITY":0.0001941,"INCLINATION":87.8967,"RA_OF_ASC_NODE":282.8178,"ARG_OF_PERICENTER":76.9422,"MEAN_ANOMALY":283.1925,"EPHEMERIS_TYPE":0,"CLASSIFICATION_TYPE":"U","NORAD_CAT_ID":56050,"ELEMENT_SET_NO":999,"REV_AT_EPOCH":12328,"BSTAR":0.0002642422,"MEAN_MOTION_DOT":1.14e-6,"MEAN_MOTION_DDOT":0},{"OBJECT_NAME":"ONEWEB-0549","OBJECT_ID":"2023-043F","EPOCH":"2025-09-19T02:18:37.706400","MEAN_MOTION":13.21824954,"ECCENTRICITY":0.00017797,"INCLINATION":87.9202,"RA_OF_ASC_NODE":298.0866,"ARG_OF_PERICENTER":106.6661,"MEAN_ANOMALY":253.4668,"EPHEMERIS_TYPE":0,"CLASSIFICATION_TYPE":"U","NORAD_CAT_ID":56051,"ELEMENT_SET_NO":999,"REV_AT_EPOCH":12241,"BSTAR":0.00012135989,"MEAN_MOTION_DOT":6.3e-7,"MEAN_MOTION_DDOT":0},{"OBJECT_NAME":"ONEWEB-0550","OBJECT_ID":"2023-043G","EPOCH":"2025-09-19T02:00:27.391104","MEAN_MOTION":13.21825169,"ECCENTRICITY":0.00019825,"INCLINATION":87.9204,"RA_OF_ASC_NODE":298.0836,"ARG_OF_PERICENTER":91.0722,"MEAN_ANOMALY":269.0639,"EPHEMERIS_TYPE":0,"CLASSIFICATION_TYPE":"U","NORAD_CAT_ID":56052,"ELEMENT_SET_NO":999,"REV_AT_EPOCH":12241,"BSTAR":0.00024021865,"MEAN_MOTION_DOT":1.12e-6,"MEAN_MOTION_DDOT":0},{"OBJECT_NAME":"ONEWEB-0551","OBJECT_ID":"2023-043H","EPOCH":"2025-09-19T03:54:39.517632","MEAN_MOTION":13.15549986,"ECCENTRICITY":0.00016808,"INCLINATION":87.9021,"RA_OF_ASC_NODE":313.3194,"ARG_OF_PERICENTER":100.8958,"MEAN_ANOMALY":259.2362,"EPHEMERIS_TYPE":0,"CLASSIFICATION_TYPE":"U","NORAD_CAT_ID":56053,"ELEMENT_SET_NO":999,"REV_AT_EPOCH":12076,"BSTAR":-0.00035926507,"MEAN_MOTION_DOT":-1.22e-6,"MEAN_MOTION_DDOT":0},{"OBJECT_NAME":"ONEWEB-0552","OBJECT_ID":"2023-043J","EPOCH":"2025-09-18T13:08:21.303456","MEAN_MOTION":13.21826583,"ECCENTRICITY":0.00016555,"INCLINATION":87.9202,"RA_OF_ASC_NODE":298.1996,"ARG_OF_PERICENTER":95.3873,"MEAN_ANOMALY":264.745,"EPHEMERIS_TYPE":0,"CLASSIFICATION_TYPE":"U","NORAD_CAT_ID":56054,"ELEMENT_SET_NO":999,"REV_AT_EPOCH":12234,"BSTAR":6.0965582e-5,"MEAN_MOTION_DOT":3.8e-7,"MEAN_MOTION_DDOT":0},{"OBJECT_NAME":"ONEWEB-0553","OBJECT_ID":"2023-043K","EPOCH":"2025-09-19T00:35:41.484480","MEAN_MOTION":13.1659469,"ECCENTRICITY":0.00023006,"INCLINATION":87.8977,"RA_OF_ASC_NODE":282.8155,"ARG_OF_PERICENTER":91.2945,"MEAN_ANOMALY":268.8449,"EPHEMERIS_TYPE":0,"CLASSIFICATION_TYPE":"U","NORAD_CAT_ID":56055,"ELEMENT_SET_NO":999,"REV_AT_EPOCH":12329,"BSTAR":7.7596487e-5,"MEAN_MOTION_DOT":4.3e-7,"MEAN_MOTION_DDOT":0},{"OBJECT_NAME":"ONEWEB-0554","OBJECT_ID":"2023-043L","EPOCH":"2025-09-19T00:17:27.444480","MEAN_MOTION":13.16593768,"ECCENTRICITY":0.00019573,"INCLINATION":87.8969,"RA_OF_ASC_NODE":282.8413,"ARG_OF_PERICENTER":85.7028,"MEAN_ANOMALY":274.4327,"EPHEMERIS_TYPE":0,"CLASSIFICATION_TYPE":"U","NORAD_CAT_ID":56056,"ELEMENT_SET_NO":999,"REV_AT_EPOCH":12327,"BSTAR":-6.0716914e-5,"MEAN_MOTION_DOT":-1.0e-7,"MEAN_MOTION_DDOT":0},{"OBJECT_NAME":"ONEWEB-0555","OBJECT_ID":"2023-043M","EPOCH":"2025-09-19T01:12:08.274528","MEAN_MOTION":13.16596743,"ECCENTRICITY":0.00024985,"INCLINATION":87.8976,"RA_OF_ASC_NODE":282.805,"ARG_OF_PERICENTER":92.7735,"MEAN_ANOMALY":267.3682,"EPHEMERIS_TYPE":0,"CLASSIFICATION_TYPE":"U","NORAD_CAT_ID":56057,"ELEMENT_SET_NO":999,"REV_AT_EPOCH":12328,"BSTAR":0.00035524768,"MEAN_MOTION_DOT":1.49e-6,"MEAN_MOTION_DDOT":0},{"OBJECT_NAME":"ONEWEB-0557","OBJECT_ID":"2023-043N","EPOCH":"2025-09-19T07:00:59.475456","MEAN_MOTION":13.16594454,"ECCENTRICITY":0.00028872,"INCLINATION":87.8969,"RA_OF_ASC_NODE":282.7744,"ARG_OF_PERICENTER":71.313,"MEAN_ANOMALY":288.8314,"EPHEMERIS_TYPE":0,"CLASSIFICATION_TYPE":"U","NORAD_CAT_ID":56058,"ELEMENT_SET_NO":999,"REV_AT_EPOCH":12331,"BSTAR":5.2228124e-5,"MEAN_MOTION_DOT":3.3e-7,"MEAN_MOTION_DDOT":0},{"OBJECT_NAME":"ONEWEB-0558","OBJECT_ID":"2023-043P","EPOCH":"2025-09-19T01:42:17.521632","MEAN_MOTION":13.21825083,"ECCENTRICITY":0.00016428,"INCLINATION":87.92,"RA_OF_ASC_NODE":298.09,"ARG_OF_PERICENTER":102.5528,"MEAN_ANOMALY":257.579,"EPHEMERIS_TYPE":0,"CLASSIFICATION_TYPE":"U","NORAD_CAT_ID":56059,"ELEMENT_SET_NO":999,"REV_AT_EPOCH":12242,"BSTAR":0.00019285721,"MEAN_MOTION_DOT":9.3e-7,"MEAN_MOTION_DDOT":0},{"OBJECT_NAME":"ONEWEB-0559","OBJECT_ID":"2023-043Q","EPOCH":"2025-09-19T01:26:23.816832","MEAN_MOTION":13.21825311,"ECCENTRICITY":0.00015689,"INCLINATION":87.9199,"RA_OF_ASC_NODE":298.0851,"ARG_OF_PERICENTER":93.096,"MEAN_ANOMALY":267.0354,"EPHEMERIS_TYPE":0,"CLASSIFICATION_TYPE":"U","NORAD_CAT_ID":56060,"ELEMENT_SET_NO":999,"REV_AT_EPOCH":12243,"BSTAR":0.00031797822,"MEAN_MOTION_DOT":1.44e-6,"MEAN_MOTION_DDOT":0},{"OBJECT_NAME":"ONEWEB-0566","OBJECT_ID":"2023-043R","EPOCH":"2025-09-19T01:17:18.566304","MEAN_MOTION":13.21824999,"ECCENTRICITY":0.00016387,"INCLINATION":87.9199,"RA_OF_ASC_NODE":298.0842,"ARG_OF_PERICENTER":101.3242,"MEAN_ANOMALY":258.8076,"EPHEMERIS_TYPE":0,"CLASSIFICATION_TYPE":"U","NORAD_CAT_ID":56061,"ELEMENT_SET_NO":999,"REV_AT_EPOCH":12241,"BSTAR":0.00030383928,"MEAN_MOTION_DOT":1.39e-6,"MEAN_MOTION_DDOT":0}]
