ONEWEB-0720             
1 55835U 23029AR  25262.23012335  .00000164  00000+0  37812-3 0  9992
2 55835  87.9285 358.8742 0001504 103.3017 256.8283 13.19727282123102
ONEWEB-0537             
1 56046U 23043A   25262.03744986  .00000134  00000+0  31715-3 0  9998
2 56046  87.8987 282.8030 0002067  96.1400 263.9966 13.16593170123281
ONEWEB-0538             
1 56047U 23043B   25262.03109711  .00000079  00000+0  17184-3 0  9992
2 56047  87.8977 282.8156 0001859 102.2574 257.8765 13.16594252123291
ONEWEB-0546             
1 56048U 23043C   25262.01845134  .00000001  00000+0 -31647-4 0  9994
2 56048  87.8990 282.8003 0002581  96.5875 263.5550 13.16594585123284
ONEWEB-0547             
1 56049U 23043D   25262.02924920  .00000075  00000+0  14901-3 0  9990
2 56049  87.9196 298.0854 0001810  97.2496 262.8844 13.21825752122408
ONEWEB-0548             
1 56050U 23043E   25262.04377269  .00000114  00000+0  26424-3 0  9999
2 56050  87.8967 282.8178 0001941  76.9422 283.1925 13.16596424123281
ONEWEB-0549             
1 56051U 23043F   25262.09626975  .00000063  00000+0  12136-3 0  9994
2 56051  87.9202 298.0866 0001779 106.6661 253.4668 13.21824954122419
ONEWEB-0550             
1 56052U 23043G   25262.08365036  .00000112  00000+0  24022-3 0  9994
2 56052  87.9204 298.0836 0001982  91.0722 269.0639 13.21825169122410
ONEWEB-0551             
1 56053U 23043H   25262.16295738 -.00000122  00000+0 -35927-3 0  9994
2 56053  87.9021 313.3194 0001680 100.8958 259.2362 13.15549986120764
ONEWEB-0552             
1 56054U 23043J   25261.54746879  .00000038  00000+0  60966-4 0  9999
2 56054  87.9202 298.1996 0001655  95.3873 264.7450 13.21826583122345
ONEWEB-0553             
1 56055U 23043K   25262.02478570  .00000043  00000+0  77596-4 0  9997
2 56055  87.8977 282.8155 0002300  91.2945 268.8449 13.16594690123297
ONEWEB-0554             
1 56056U 23043L   25262.01212320 -.00000010  00000+0 -60717-4 0  9999
2 56056  87.8969 282.8413 0001957  85.7028 274.4327 13.16593768123274
ONEWEB-0555             
1 56057U 23043M   25262.05009577  .00000149  00000+0  35525-3 0  9991
2 56057  87.8976 282.8050 0002498  92.7735 267.3682 13.16596743123286
ONEWEB-0557             
1 56058U 23043N   25262.29235504  .00000033  00000+0  52228-4 0  9991
2 56058  87.8969 282.7744 0002887  71.3130 288.8314 13.16594454123313
ONEWEB-0558             
1 56059U 23043P   25262.07103613  .00000093  00000+0  19286-3 0  9995
2 56059  87.9200 298.0900 0001642 102.5528 257.5790 13.21825083122426
ONEWEB-0559             
1 56060U 23043Q   25262.05999788  .00000144  00000+0  31798-3 0  9990
2 56060  87.9199 298.0851 0001568  93.0960 267.0354 13.21825311122438
ONEWEB-0566             
1 56061U 23043R   25262.05368711  .00000139  00000+0  30384-3 0  9991
2 56061  87.9199 298.0842 0001638 101.3242 258.8076 13.21824999122411
